{
  "original_analysis": {
    "covered_bins": 36,
    "total_bins": 36,
    "coverage_percent": 100.0,
    "distribution": {
      "9": 237,
      "7": 299,
      "11": 222,
      "5": 175,
      "6": 300,
      "34": 325,
      "8": 363,
      "10": 232,
      "13": 201,
      "12": 224,
      "22": 212,
      "24": 224,
      "25": 247,
      "20": 215,
      "21": 242,
      "23": 181,
      "4": 241,
      "18": 188,
      "16": 270,
      "17": 215,
      "19": 179,
      "15": 218,
      "29": 262,
      "27": 245,
      "31": 186,
      "26": 243,
      "28": 166,
      "3": 343,
      "1": 143,
      "33": 312,
      "35": 308,
      "32": 245,
      "30": 297,
      "14": 166,
      "0": 274,
      "2": 295
    },
    "total_satellites": 8695
  },
  "phase2_results": {
    "phase": "Phase 2 - Orbital Diversity Filtering",
    "input_count": 8695,
    "output_count": 500,
    "reduction_ratio": 0.05750431282346176,
    "selected_satellites": [
      {
        "OBJECT_NAME": "STARLINK-3060",
        "OBJECT_ID": "2021-082AB",
        "EPOCH": "2025-07-31T20:30:57.004416",
        "MEAN_MOTION": 14.98325972,
        "ECCENTRICITY": 0.0002713,
        "INCLINATION": 70.0002,
        "RA_OF_ASC_NODE": 91.2532,
        "ARG_OF_PERICENTER": 271.5834,
        "MEAN_ANOMALY": 88.5015,
        "EPHEMERIS_TYPE": 0,
        "CLASSIFICATION_TYPE": "U",
        "NORAD_CAT_ID": 49155,
        "ELEMENT_SET_NO": 999,
        "REV_AT_EPOCH": 21496,
        "BSTAR": -8.025e-05,
        "MEAN_MOTION_DOT": -1.05e-05,
        "MEAN_MOTION_DDOT": 0,
        "constellation": "starlink",
        "quality_scores": {
          "orbital_stability": 21.681772600000002,
          "coverage_uniformity": 20,
          "handover_frequency": 15.139244444444445,
          "signal_quality": 25,
          "total_score": 81.82101704444445
        }
      },
      {
        "OBJECT_NAME": "STARLINK-3072",
        "OBJECT_ID": "2021-082Z",
        "EPOCH": "2025-07-31T20:36:57.538656",
        "MEAN_MOTION": 14.98329484,
        "ECCENTRICITY": 0.0002728,
        "INCLINATION": 69.9999,
        "RA_OF_ASC_NODE": 91.2497,
        "ARG_OF_PERICENTER": 267.6235,
        "MEAN_ANOMALY": 92.4611,
        "EPHEMERIS_TYPE": 0,
        "CLASSIFICATION_TYPE": "U",
        "NORAD_CAT_ID": 49153,
        "ELEMENT_SET_NO": 999,
        "REV_AT_EPOCH": 21388,
        "BSTAR": 1.538e-05,
        "MEAN_MOTION_DOT": 9.1e-07,
        "MEAN_MOTION_DDOT": 0,
        "constellation": "starlink",
        "quality_scores": {
          "orbital_stability": 21.681430533333334,
          "coverage_uniformity": 20,
          "handover_frequency": 15.138855555555557,
          "signal_quality": 25,
          "total_score": 81.82028608888889
        }
      },
      {
        "OBJECT_NAME": "STARLINK-3069",
        "OBJECT_ID": "2021-082AY",
        "EPOCH": "2025-07-31T20:42:58.066848",
        "MEAN_MOTION": 14.98326899,
        "ECCENTRICITY": 0.000265,
        "INCLINATION": 70,
        "RA_OF_ASC_NODE": 91.2354,
        "ARG_OF_PERICENTER": 270.2691,
        "MEAN_ANOMALY": 89.8164,
        "EPHEMERIS_TYPE": 0,
        "CLASSIFICATION_TYPE": "U",
        "NORAD_CAT_ID": 49176,
        "ELEMENT_SET_NO": 999,
        "REV_AT_EPOCH": 21388,
        "BSTAR": -2.6502e-05,
        "MEAN_MOTION_DOT": -4.09e-06,
        "MEAN_MOTION_DDOT": 0,
        "constellation": "starlink",
        "quality_scores": {
          "orbital_stability": 21.6826867,
          "coverage_uniformity": 20,
          "handover_frequency": 15.137266666666667,
          "signal_quality": 25,
          "total_score": 81.81995336666668
        }
      },
      {
        "OBJECT_NAME": "STARLINK-3085",
        "OBJECT_ID": "2021-082AC",
        "EPOCH": "2025-07-31T21:37:03.651744",
        "MEAN_MOTION": 14.98324161,
        "ECCENTRICITY": 0.0002099,
        "INCLINATION": 70,
        "RA_OF_ASC_NODE": 91.1384,
        "ARG_OF_PERICENTER": 263.4978,
        "MEAN_ANOMALY": 96.5942,
        "EPHEMERIS_TYPE": 0,
        "CLASSIFICATION_TYPE": "U",
        "NORAD_CAT_ID": 49156,
        "ELEMENT_SET_NO": 999,
        "REV_AT_EPOCH": 21497,
        "BSTAR": 0.000151,
        "MEAN_MOTION_DOT": 1.709e-05,
        "MEAN_MOTION_DDOT": 0,
        "constellation": "starlink",
        "quality_scores": {
          "orbital_stability": 21.691042966666664,
          "coverage_uniformity": 20,
          "handover_frequency": 15.12648888888889,
          "signal_quality": 25,
          "total_score": 81.81753185555556
        }
      },
      {
        "OBJECT_NAME": "STARLINK-3119",
        "OBJECT_ID": "2021-082R",
        "EPOCH": "2025-07-31T21:00:59.951232",
        "MEAN_MOTION": 14.98341189,
        "ECCENTRICITY": 0.0002709,
        "INCLINATION": 70,
        "RA_OF_ASC_NODE": 91.1942,
        "ARG_OF_PERICENTER": 267.7961,
        "MEAN_ANOMALY": 92.2888,
        "EPHEMERIS_TYPE": 0,
        "CLASSIFICATION_TYPE": "U",
        "NORAD_CAT_ID": 49145,
        "ELEMENT_SET_NO": 999,
        "REV_AT_EPOCH": 21388,
        "BSTAR": 0.00016486,
        "MEAN_MOTION_DOT": 1.875e-05,
        "MEAN_MOTION_DDOT": 0,
        "constellation": "starlink",
        "quality_scores": {
          "orbital_stability": 21.68132536666667,
          "coverage_uniformity": 20,
          "handover_frequency": 15.132688888888888,
          "signal_quality": 25,
          "total_score": 81.81401425555555
        }
      },
      {
        "OBJECT_NAME": "STARLINK-3102",
        "OBJECT_ID": "2021-082X",
        "EPOCH": "2025-07-31T20:48:58.518144",
        "MEAN_MOTION": 14.98327822,
        "ECCENTRICITY": 0.0002996,
        "INCLINATION": 69.9999,
        "RA_OF_ASC_NODE": 91.2217,
        "ARG_OF_PERICENTER": 270.3536,
        "MEAN_ANOMALY": 89.728,
        "EPHEMERIS_TYPE": 0,
        "CLASSIFICATION_TYPE": "U",
        "NORAD_CAT_ID": 49151,
        "ELEMENT_SET_NO": 999,
        "REV_AT_EPOCH": 21508,
        "BSTAR": -2.5996e-06,
        "MEAN_MOTION_DOT": -1.24e-06,
        "MEAN_MOTION_DDOT": 0,
        "constellation": "starlink",
        "quality_scores": {
          "orbital_stability": 21.67746593333333,
          "coverage_uniformity": 20,
          "handover_frequency": 15.135744444444445,
          "signal_quality": 25,
          "total_score": 81.81321037777778
        }
      }