STARLINK-3119           
1 49145U 21082R   25212.87569388  .00001875  00000+0  16486-3 0  9990
2 49145  70.0000  91.1942 0002709 267.7961  92.2888 14.98341189213881
STARLINK-3102           
1 49151U 21082X   25212.86734396 -.00000124  00000+0 -25996-5 0  9995
2 49151  69.9999  91.2217 0002996 270.3536  89.7280 14.98327822215083
STARLINK-3072           
1 49153U 21082Z   25212.85899929  .00000091  00000+0  15380-4 0  9996
2 49153  69.9999  91.2497 0002728 267.6235  92.4611 14.98329484213884
STARLINK-3060           
1 49155U 21082AB  25212.85482644 -.00001050  00000+0 -80250-4 0  9996
2 49155  70.0002  91.2532 0002713 271.5834  88.5015 14.98325972214969
STARLINK-3085           
1 49156U 21082AC  25212.90073671  .00001709  00000+0  15100-3 0  9999
2 49156  70.0000  91.1384 0002099 263.4978  96.5942 14.98324161214976
STARLINK-3069           
1 49176U 21082AY  25212.86317207 -.00000409  00000+0 -26502-4 0  9999
2 49176  70.0000  91.2354 0002650 270.2691  89.8164 14.98326899213887
